[{"OBJECT_NAME":"STARLINK-3910","OBJECT_ID":"2022-051BC","EPOCH":"2026-03-09T12:49:30.281664","MEAN_MOTION":15.08841511,"ECCENTRICITY":0.00011961,"INCLINATION":53.2169,"RA_OF_ASC_NODE":119.8187,"ARG_OF_PERICENTER":94.3692,"MEAN_ANOMALY":265.7437,"EPHEMERIS_TYPE":0,"CLASSIFICATION_TYPE":"U","NORAD_CAT_ID":52586,"ELEMENT_SET_NO":999,"REV_AT_EPOCH":21156,"BSTAR":9.4620466e-5,"MEAN_MOTION_DOT":1.218e-5,"MEAN_MOTION_DDOT":0},{"OBJECT_NAME":"FENGYUN 1C DEB","OBJECT_ID":"1999-025AJJ","EPOCH":"2026-03-09T18:40:58.380672","MEAN_MOTION":15.18672988,"ECCENTRICITY":0.00638575,"INCLINATION":98.7226,"RA_OF_ASC_NODE":259.4919,"ARG_OF_PERICENTER":168.3626,"MEAN_ANOMALY":191.9098,"EPHEMERIS_TYPE":0,"CLASSIFICATION_TYPE":"U","NORAD_CAT_ID":30520,"ELEMENT_SET_NO":999,"REV_AT_EPOCH":2360,"BSTAR":0.0014000942,"MEAN_MOTION_DOT":0.0003064,"MEAN_MOTION_DDOT":0}]
